[{"OBJECT_NAME":"STARLINK-6341","OBJECT_ID":"2023-078V","EPOCH":"2026-03-09T23:12:07.309728","MEAN_MOTION":14.9832757,"ECCENTRICITY":0.00028597,"INCLINATION":70.0001,"RA_OF_ASC_NODE":323.8155,"ARG_OF_PERICENTER":265.5621,"MEAN_ANOMALY":94.5211,"EPHEMERIS_TYPE":0,"CLASSIFICATION_TYPE":"U","NORAD_CAT_ID":56786,"ELEMENT_SET_NO":999,"REV_AT_EPOCH":15321,"BSTAR":-2.7486414e-5,"MEAN_MOTION_DOT":-4.21e-6,"MEAN_MOTION_DDOT":0},{"OBJECT_NAME":"ION SCV-022","OBJECT_ID":"2025-276S","EPOCH":"2026-03-09T17:53:05.489952","MEAN_MOTION":14.97347265,"ECCENTRICITY":0.00045393,"INCLINATION":97.5376,"RA_OF_ASC_NODE":142.978,"ARG_OF_PERICENTER":154.7099,"MEAN_ANOMALY":205.4346,"EPHEMERIS_TYPE":0,"CLASSIFICATION_TYPE":"U","NORAD_CAT_ID":66682,"ELEMENT_SET_NO":999,"REV_AT_EPOCH":1519,"BSTAR":0.00017276803,"MEAN_MOTION_DOT":1.95e-5,"MEAN_MOTION_DDOT":0}]
